OBJECT_NAME,OBJECT_ID,EPOCH,MEAN_MOTION,ECCENTRICITY,INCLINATION,RA_OF_ASC_NODE,ARG_OF_PERICENTER,MEAN_ANOMALY,EPHEMERIS_TYPE,CLASSIFICATION_TYPE,NORAD_CAT_ID,ELEMENT_SET_NO,REV_AT_EPOCH,BSTAR,MEAN_MOTION_DOT,MEAN_MOTION_DDOT
SPACEMOBILE-008,2026-139A,2026-07-17T00:03:50.603328,15.12803490,.0005124,52.9950,127.2012,60.7952,299.3551,0,U,69589,999,449,.31052E-4,.25E-5,0
SPACEMOBILE-009,2026-139B,2026-07-17T00:06:51.181056,15.12696869,.0005392,52.9941,127.2084,56.7740,303.3767,0,U,69590,999,449,.32868E-4,.281E-5,0
SPACEMOBILE-010,2026-139C,2026-07-17T00:11:37.328352,15.12530556,.0005326,52.9949,127.2323,48.7149,311.4300,0,U,69591,999,450,.44833E-4,.49E-5,0
